GLOBALSTAR M094         
1 39074U 13005C   25062.78280190 -.00000081  00000+0  12692-3 0  9994
2 39074  51.9954 143.0424 0000747  92.2010 267.8943 12.62268645559086
GLOBALSTAR M096         
1 39075U 13005D   25062.71687378 -.00000085  00000+0  10344-3 0  9993
2 39075  52.0061 191.6750 0000860  86.0600 274.0365 12.62268735558325
GLOBALSTAR M078         
1 39076U 13005E   25062.29385100 -.00000089  00000+0  84937-4 0  9999
2 39076  51.9864 277.6149 0000636   3.5061 356.5809 12.62259814556547
GLOBALSTAR M095         
1 39077U 13005F   25062.32076001 -.00000085  00000+0  10644-3 0  9990
2 39077  51.9787 274.7857 0000920  45.8716 314.2226 12.62267386556400
GLOBALSTAR M087         
1 52888U 22064A   25062.43062726 -.00000106  00000+0 -14531-4 0  9996
2 52888  51.9796  55.8518 0000328  66.1641 293.9259 12.62269084131687
